FLOCK 3M 1
1 42995U 17068J   18235.55733158 +.00001572 +00000-0 +78094-4 0  9994
2 42995 097.3617 346.4901 0015628 272.7961 087.1485 15.19032371044864
FLOCK 3M 1
1 42995U 17068J   18235.75495189  .00001547  00000-0  76865-4 0  9991
2 42995  97.3617 346.6826 0015629 272.0193  87.9252 15.19032949 44897
FLOCK 3M 1
1 42995U 17068J   18236.21606595  .00001560  00000-0  77518-4 0  9999
2 42995  97.3617 347.1319 0015644 270.2290  89.7152 15.19034433 44962
FLOCK 3M 1
1 42995U 17068J   18236.47955921  .00001620  00000-0  80364-4 0  9997
2 42995  97.3618 347.3886 0015642 269.1937  90.7505 15.19035653 45002
FLOCK 3M 1
1 42995U 17068J   18236.87479860  .00001755  00000-0  86782-4 0  9993
2 42995  97.3618 347.7737 0015657 267.6878  92.2564 15.19037858 45061
FLOCK 3M 1
1 42995U 17068J   18237.20416515  .00001673  00000-0  82887-4 0  9990
2 42995  97.3618 348.0946 0015667 266.4163  93.5280 15.19038458 45114
FLOCK 3M 1
1 42995U 17068J   18237.27003834  .00001677  00000-0  83065-4 0  9996
2 42995  97.3619 348.1588 0015668 266.1599  93.7845 15.19038724 45125
FLOCK 3M 1
1 42995U 17068J   18237.86289701  .00001756  00000-0  86814-4 0  9993
2 42995  97.3620 348.7364 0015677 263.8642  96.0806 15.19041212 45217
FLOCK 3M 1
1 42995U 17068J   18238.19226230  .00001663  00000-0  82408-4 0  9990
2 42995  97.3620 349.0574 0015681 262.6055  97.3398 15.19041966 45265
FLOCK 3M 1
1 42995U 17068J   18238.25813531  .00001671  00000-0  82754-4 0  9996
2 42995  97.3620 349.1216 0015685 262.3480  97.5974 15.19042265 45278
FLOCK 3M 1
1 42995U 17068J   18238.52162460 +.00002383 +00000-0 +11661-3 0  9993
2 42995 097.3621 349.3783 0015692 261.3379 098.6078 15.19047916045314
FLOCK 3M 1
1 42995U 17068J   18238.54517251  .00001671  00000-0  82754-4 0  9998
2 42995  97.3622 349.4001 0015623 260.8394 227.7750 15.19041461 45315
FLOCK 3M 1
1 42995U 17068J   18238.85098958  .00002231  00000-0  10939-3 0  9998
2 42995  97.3621 349.6993 0015699 260.0726  99.8737 15.19048331 45361
FLOCK 3M 1
1 42995U 17068J   18239.11448232  .00002997  00000-0  14582-3 0  9999
2 42995  97.3624 349.9559 0015687 258.8916 101.0555 15.19050114 45409
FLOCK 3M 1
1 42995U 17068J   18239.50971790  .00003445  00000-0  16713-3 0  9999
2 42995  97.3624 350.3410 0015700 257.3606 102.5873 15.19054034 45467
FLOCK 3M 1
1 42995U 17068J   18239.57559044 +.00003400 +00000-0 +16499-3 0  9992
2 42995 097.3624 350.4052 0015692 257.1063 102.8419 15.19054369045476
FLOCK 3M 1
1 42995U 17068J   18239.70733543  .00003391  00000-0  16454-3 0  9995
2 42995  97.3624 350.5336 0015702 256.5854 103.3631 15.19055281 45493
FLOCK 3M 1
1 42995U 17068J   18240.23431412  .00002926  00000-0  14243-3 0  9992
2 42995  97.3624 351.0471 0015753 254.6051 105.3444 15.19057943 45573
FLOCK 3M 1
1 42995U 17068J   18240.49780302  .00003610  00000-0  17493-3 0  9996
2 42995  97.3626 351.3039 0015733 253.5758 106.3747 15.19062815 45614
FLOCK 3M 1
1 42995U 17068J   18240.82716332  .00003398  00000-0  16485-3 0  9998
2 42995  97.3626 351.6249 0015735 252.3153 107.6364 15.19065491 45665
FLOCK 3M 1
1 42995U 17068J   18240.89303582 +.00002810 +00000-0 +13690-3 0  9997
2 42995 097.3626 351.6891 0015740 252.0579 107.8940 15.19064304045678
FLOCK 3M 1
1 42995U 17068J   18241.22239543  .00003138  00000-0  15246-3 0  9993
2 42995  97.3626 352.0101 0015754 250.7963 109.1568 15.19067998 45723
FLOCK 3M 1
1 42995U 17068J   18241.28826731  .00003152  00000-0  15312-3 0  9990
2 42995  97.3626 352.0743 0015755 250.5387 109.4145 15.19068625 45737
FLOCK 3M 1
1 42995U 17068J   18241.88111567  .00002025  00000-0  99545-4 0  9999
2 42995  97.3626 352.6520 0015784 248.2666 111.6889 15.19068926 45826
FLOCK 3M 1
1 42995U 17068J   18242.21047593  .00002071  00000-0  10172-3 0  9993
2 42995  97.3624 352.9729 0015791 246.9732 112.9838 15.19069564 45877
FLOCK 3M 1
1 42995U 17068J   18242.27634781  .00002029  00000-0  99699-4 0  9995
2 42995  97.3624 353.0371 0015790 246.7133 113.2440 15.19069834 45888
FLOCK 3M 1
1 42995U 17068J   18242.53983564 +.00001741 +00000-0 +86010-4 0  9993
2 42995 097.3625 353.2939 0015816 245.7056 114.2527 15.19070023045927
FLOCK 3M 1
1 42995U 17068J   18242.80332315  .00001454  00000-0  72380-4 0  9991
2 42995  97.3624 353.5506 0015845 244.7071 115.2523 15.19070452 45964
FLOCK 3M 1
1 42995U 17068J   18242.86919722  .00002122  00000-0  10412-3 0  9990
2 42995  97.3622 353.6147 0015858 244.6768 115.2824 15.19069164 45973
FLOCK 3M 1
1 42995U 17068J   18243.26442841  .00001927  00000-0  94856-4 0  9995
2 42995  97.3622 353.9998 0015878 243.1493 116.8118 15.19070324 46032
FLOCK 3M 1
1 42995U 17068J   18243.85727478  .00001625  00000-0  80483-4 0  9998
2 42995  97.3623 354.5775 0015921 240.9278 119.0363 15.19071661 46120
FLOCK 3M 1
1 42995U 17068J   18244.12076175  .00001541  00000-0  76524-4 0  9998
2 42995  97.3622 354.8342 0015935 239.9089 120.0566 15.19072459 46162
FLOCK 3M 1
1 42995U 17068J   18244.25250437  .00000873  00000-0  44740-4 0  9999
2 42995  97.3621 354.9628 0015943 239.1302 120.8365 15.19072150 46183
FLOCK 3M 1
1 42995U 17068J   18244.84535068  .00001335  00000-0  66686-4 0  9997
2 42995  97.3623 355.5403 0015970 237.1296 122.8402 15.19074389 46273
FLOCK 3M 1
1 42995U 17068J   18244.97709347  .00000973  00000-0  49481-4 0  9995
2 42995  97.3620 355.6688 0016010 236.4334 123.5373 15.19074075 46296
FLOCK 3M 1
1 42995U 17068J   18245.50406707  .00000944  00000-0  48122-4 0  9998
2 42995  97.3620 356.1823 0016049 234.4472 125.5267 15.19075249 46373
FLOCK 3M 1
1 42995U 17068J   18245.83342557  .00001177  00000-0  59196-4 0  9998
2 42995  97.3624 356.5032 0016040 233.3419 126.6342 15.19076759 46422
FLOCK 3M 1
1 42995U 17068J   18245.89929735 +.00000969 +00000-0 +49279-4 0  9992
2 42995 097.3623 356.5673 0016061 233.0695 126.9069 15.19075999046433
FLOCK 3M 1
1 42995U 17068J   18246.22865563  .00000996  00000-0  50561-4 0  9994
2 42995  97.3623 356.8883 0016080 231.8262 128.1525 15.19076834 46481
FLOCK 3M 1
1 42995U 17068J   18246.55801349  .00001102  00000-0  55603-4 0  9994
2 42995  97.3624 357.2092 0016089 230.5586 129.4226 15.19078106 46535
FLOCK 3M 1
1 42995U 17068J   18246.82149980  .00001039  00000-0  52595-4 0  9996
2 42995  97.3624 357.4660 0016110 229.5627 130.4203 15.19078429 46576
FLOCK 3M 1
1 42995U 17068J   18246.88737137 +.00001037 +00000-0 +52506-4 0  9999
2 42995 097.3624 357.5302 0016115 229.3179 130.6656 15.19078550046585
FLOCK 3M 1
1 42995U 17068J   18247.21672911  .00001050  00000-0  53127-4 0  9990
2 42995  97.3624 357.8511 0016146 228.0955 131.8903 15.19079327 46639
FLOCK 3M 1
1 42995U 17068J   18247.54608660  .00001072  00000-0  54200-4 0  9993
2 42995  97.3624 358.1721 0016171 226.8572 133.1311 15.19080200 46680
FLOCK 3M 1
1 42995U 17068J   18247.87544430  .00001014  00000-0  51421-4 0  9991
2 42995  97.3624 358.4930 0016203 225.6514 134.3394 15.19080533 46733
FLOCK 3M 1
1 42995U 17068J   18248.07305876  .00001014  00000-0  51426-4 0  9998
2 42995  97.3624 358.6856 0016220 224.8986 135.0938 15.19080931 46762
FLOCK 3M 1
1 42995U 17068J   18248.53415799  .00001215  00000-0  60994-4 0  9998
2 42995  97.3625 359.1350 0016260 223.1996 136.7964 15.19083305 46838
FLOCK 3M 1
1 42995U 17068J   18248.86351467  .00001262  00000-0  63182-4 0  9999
2 42995  97.3626 359.4559 0016278 221.9510 138.0479 15.19084407 46885
FLOCK 3M 1
1 42995U 17068J   18249.06112845  .00001296  00000-0  64835-4 0  9990
2 42995  97.3626 359.6485 0016289 221.2404 138.7601 15.19085145 46910
FLOCK 3M 1
1 42995U 17068J   18249.25874232  .00001301  00000-0  65075-4 0  9990
2 42995  97.3626 359.8411 0016305 220.5266 139.4755 15.19085709 46945
FLOCK 3M 1
1 42995U 17068J   18249.52222692 +.00001370 +00000-0 +68333-4 0  9993
2 42995 097.3627 000.0979 0016326 219.5319 140.4726 15.19086909046987
FLOCK 3M 1
1 42995U 17068J   18249.85158295  .00001329  00000-0  66368-4 0  9996
2 42995  97.3627   0.4188 0016350 218.2953 141.7122 15.19087613 47034
FLOCK 3M 1
1 42995U 17068J   18250.24680959  .00001393  00000-0  69430-4 0  9992
2 42995  97.3627   0.8040 0016384 216.8644 143.1466 15.19089150 47094
FLOCK 3M 1
1 42995U 17068J   18250.51029377  .00001465  00000-0  72831-4 0  9992
2 42995  97.3628   1.0608 0016402 215.8717 144.1417 15.19090348 47132
FLOCK 3M 1
1 42995U 17068J   18250.83964894  .00001508  00000-0  74858-4 0  9998
2 42995  97.3628   1.3817 0016430 214.6600 145.3565 15.19091567 47182
FLOCK 3M 1
1 42995U 17068J   18250.90552014 +.00001479 +00000-0 +73505-4 0  9998
2 42995 097.3628 001.4459 0016439 214.4297 145.5874 15.19091533047193
FLOCK 3M 1
1 42995U 17068J   18251.23487524  .00001456  00000-0  72393-4 0  9997
2 42995  97.3628   1.7669 0016470 213.2660 146.7541 15.19092378 47243
FLOCK 3M 1
1 42995U 17068J   18251.49835957  .00001375  00000-0  68573-4 0  9997
2 42995  97.3629   2.0237 0016502 212.2655 147.7572 15.19092609 47284
FLOCK 3M 1
1 42995U 17068J   18251.82771464  .00001312  00000-0  65565-4 0  9995
2 42995  97.3629   2.3447 0016537 211.1039 148.9218 15.19093151 47331
FLOCK 3M 1
1 42995U 17068J   18251.89358572 +.00001279 +00000-0 +63981-4 0  9995
2 42995 097.3629 002.4089 0016545 210.8578 149.1686 15.19093108047342
FLOCK 3M 1
1 42995U 17068J   18252.22294050  .00001269  00000-0  63513-4 0  9993
2 42995  97.3629   2.7299 0016566 209.6295 150.4003 15.19093944 47394
FLOCK 3M 1
1 42995U 17068J   18252.48642405  .00001265  00000-0  63297-4 0  9997
2 42995  97.3629   2.9867 0016593 208.6468 151.3857 15.19094689 47437
FLOCK 3M 1
1 42995U 17068J   18252.88164904  .00001266  00000-0  63381-4 0  9999
2 42995  97.3630   3.3718 0016633 207.2393 152.7971 15.19095881 47499
FLOCK 3M 1
1 42995U 17068J   18253.21100304  .00001270  00000-0  63550-4 0  9994
2 42995  97.3630   3.6928 0016663 206.0593 153.9805 15.19096871 47542
FLOCK 3M 1
1 42995U 17068J   18253.54035643  .00001289  00000-0  64464-4 0  9998
2 42995  97.3630   4.0137 0016700 204.8597 155.1835 15.19098141 47595
FLOCK 3M 1
1 42995U 17068J   18253.86970989  .00001261  00000-0  63133-4 0  9996
2 42995  97.3630   4.3347 0016730 203.7128 156.3337 15.19099052 47640
